STARLINK-35786          
1 67040U 25294L   25354.16667823 -.01418046  00000+0 -54561-2 0  9995
2 67040  43.0002 136.7657 0001691 266.4007 219.8361 15.89141205  1316
STARLINK-35765          
1 67041U 25294M   25354.16667823 -.01424008  00000+0 -54604-2 0  9999
2 67041  43.0000 136.7560 0001628 269.3666 220.6974 15.89220761  1316
STARLINK-35773          
1 67042U 25294N   25354.16667823 -.01430278  00000+0 -54759-2 0  9997
2 67042  43.0003 136.7507 0001913 269.2671 222.8800 15.89260523  1506
STARLINK-35901          
1 67043U 25294P   25354.16667823 -.01441881  00000+0 -55154-2 0  9990
2 67043  43.0002 136.7457 0001678 267.4069 226.7981 15.89305253  1502
STARLINK-35884          
1 67044U 25294Q   25354.16667823 -.01440695  00000+0 -54988-2 0  9997
2 67044  43.0005 136.7405 0001749 270.1931 225.9939 15.89344259  1500
STARLINK-35891          
1 67045U 25294R   25354.16667823 -.01451616  00000+0 -55357-2 0  9994
2 67045  43.0003 136.7343 0001648 271.1795 227.4424 15.89385178  1429
STARLINK-35721          
1 67046U 25294S   25354.16667823 -.01464604  00000+0 -55802-2 0  9991
2 67046  43.0005 136.7288 0001627 271.2709 229.5189 15.89430361  1508
STARLINK-35779          
1 67047U 25294T   25354.16667823 -.01464690  00000+0 -55703-2 0  9997
2 67047  43.0004 136.7231 0001684 271.5215 231.6987 15.89465363  1313
STARLINK-35905          
1 67048U 25294U   25354.16667823 -.01481183  00000+0 -56278-2 0  9992
2 67048  43.0005 136.7184 0001650 269.0740 235.9231 15.89518502  1425
STARLINK-35877          
1 67049U 25294V   25354.16667823 -.01479573  00000+0 -56102-2 0  9999
2 67049  43.0007 136.7127 0001727 270.5476 236.7607 15.89553711  1509
STARLINK-36078          
1 67050U 25294W   25354.16667823 -.01486570  00000+0 -56295-2 0  9999
2 67050  43.0007 136.7068 0001595 268.6610 240.9856 15.89595228  1429
STARLINK-35706          
1 67051U 25294X   25354.16667823 -.01504144  00000+0 -56920-2 0  9993
2 67051  43.0007 136.7006 0001580 269.3797 242.6065 15.89646266  1509
STARLINK-35720          
1 67052U 25294Y   25354.16667823 -.01497654  00000+0 -56526-2 0  9993
2 67052  43.0008 136.6962 0001666 272.3201 241.5023 15.89682221  1491
STARLINK-35739          
1 67053U 25294Z   25354.16667823 -.01518666  00000+0 -57289-2 0  9998
2 67053  43.0008 136.6905 0001585 270.4070 245.5577 15.89738233  1305
STARLINK-35754          
1 67054U 25294AA  25354.16667823 -.01557863  00000+0 -57446-2 0  9996
2 67054  43.0007 136.6846 0001518 268.9403 249.4360 15.89781105  1306
STARLINK-35790          
1 67055U 25294AB  25354.16667823 -.01559317  00000+0 -57393-2 0  9994
2 67055  43.0005 136.6783 0001583 270.0445 250.6365 15.89818758  1503
STARLINK-36143          
1 67056U 25294AC  25354.16667823 -.01577798  00000+0 -57747-2 0  9991
2 67056  43.0004 136.6636 0001451 267.7414 258.7136 15.89960792  1504
STARLINK-36141          
1 67057U 25294AD  25354.16667823 -.01576464  00000+0 -57819-2 0  9991
2 67057  43.0003 136.6692 0001531 273.7741 250.6486 15.89916986  1421
STARLINK-35767          
1 67058U 25294AE  25354.16667823 -.01561369  00000+0 -57346-2 0  9995
2 67058  43.0006 136.6734 0001594 270.7386 251.8723 15.89863525  1318
HULIANWANG DIGUI-119    
1 67059U 25295A   25351.46978994 -.00000182  00000+0 -90034-5 0  9995
2 67059  50.0070 352.2731 0013896 264.5159  95.4170 14.25569756   795
HULIANWANG DIGUI-120    
1 67060U 25295B   25349.71694909  .00000000  00000+0  66896-4 0  9998
2 67060  50.0050 359.6709 0013223 257.2650 102.6786 14.25706335   543
HULIANWANG DIGUI-121    
1 67061U 25295C   25349.71692468 -.00000001  00000+0  66638-4 0  9993
2 67061  50.0012 359.6606 0013268 256.3366 103.6071 14.25729079   549
HULIANWANG DIGUI-122    
1 67062U 25295D   25354.20261711  .00000092  00000+0  10552-3 0  9999
2 67062  50.0054 340.7259 0013164 279.5231  80.4195 14.25755607  1180
HULIANWANG DIGUI-123    
1 67063U 25295E   25354.20185456  .00000084  00000+0  10184-3 0  9993
2 67063  50.0061 340.7243 0012479 278.7083  81.2417 14.25888399  1187
HULIANWANG DIGUI-124    
1 67064U 25295F   25354.20150602 -.00000609  00000+0 -18671-3 0  9993
2 67064  50.0035 340.7088 0012093 273.4294  86.5237 14.25949274  1182
HULIANWANG DIGUI-125    
1 67065U 25295G   25354.20147961  .00000075  00000+0  97749-4 0  9997
2 67065  50.0011 340.7071 0012271 279.4128  80.5399 14.25954033  1181
HULIANWANG DIGUI-126    
1 67066U 25295H   25354.20064007  .00000069  00000+0  95170-4 0  9996
2 67066  50.0014 340.7019 0011437 276.4832  83.4780 14.26097009  1187
HULIANWANG DIGUI-127    
1 67067U 25295J   25354.19985208 -.00000788  00000+0 -25972-3 0  9992
2 67067  50.0054 340.7049 0010891 280.2545  79.7141 14.26251180  1183
CZ-12 R/B               
1 67068U 25295K   25353.97685719 -.00000129  00000+0  11975-4 0  9999
2 67068  49.9944 340.8721 0056880 161.8417 198.4551 14.41129023  1155
XIWANG-5 02             
1 67069U 25296A   25354.20836815  .00008157  00000+0  41582-3 0  9997
2 67069  41.3526  58.9709 0014465  78.4582 281.7863 15.16815712  1095
DEAR-5                  
1 67070U 25296B   25354.20758602  .00004371  00000+0  22721-3 0  9994
2 67070  41.3552  58.9670 0016078  79.8478 280.4156 15.16879281  1085
KZ-11 R/B               
1 67071U 25296C   25354.16923020  .06669049  64696-5  53063-3 0  9993
2 67071  41.3244  61.6826 0602930   5.4045 355.2917 15.05528250  1059
ELECTRON R/B            
1 67072U 25297A   25354.17606926  .02731287  22069-5  13579-2 0  9994
2 67072  97.4681 142.1969 0182042 205.6427 153.5738 15.93491226   963
RAISE-4                 
1 67073U 25297B   25353.27188687  .00003306  00000+0  22354-3 0  9993
2 67073  97.4853 140.6452 0011417 296.9674  63.0387 15.07177511   776
ELECTRON KICK STAGE R/B 
1 67074U 25297C   25354.14419933  .00245761  17931-4  13416-2 0  9999
2 67074  97.4821 141.9475 0200305 242.5995 115.4758 15.56561448   932
ZIYUAN 3-04 (ZY 3-04)   
1 67131U 25300A   25354.12115704  .00001256  00000+0  59528-4 0  9994
2 67131  97.4921  68.1934 0002631 174.8508 185.2755 15.21166252   619
CZ-4B R/B               
1 67132U 25300B   25352.67574779  .00040543  26530-5  19566-3 0  9995
2 67132  97.5563  66.9660 0174197   9.3582 351.0851 15.63831828   407
GALILEO A               
1 67160U 25302A   25352.14605887 -.00000007  00000+0  00000+0 0  9994
2 67160  54.2406 107.2544 0008423 237.6458 122.2317  1.72906186    28
GALILEO B               
1 67161U 25302B   25353.30200568 -.00000005  00000+0  00000+0 0  9999
2 67161  54.2272 107.1916 0004586 255.0301 104.8802  1.72972192    57
ARIANE 6 R/B            
1 67162U 25302C   25353.30035962 -.00000005  00000+0  00000+0 0  9994
2 67162  54.2437 107.2220 0000255 160.7324 199.2296  1.73130298    88
DISKSAT A               
1 67219U 25305A   25354.24821920  .00000514  00000+0  51191-4 0  9997
2 67219  45.0065 310.7663 0004382 275.4241  84.6134 15.05755432   312
DISKSAT B               
1 67220U 25305B   25354.24828476  .00000511  00000+0  51086-4 0  9992
2 67220  45.0108 310.7693 0004681 270.4757  89.5581 15.05702195   312
DISKSAT C               
1 67221U 25305C   25354.24836722  .00001260  00000+0  10222-3 0  9994
2 67221  45.0091 310.7674 0004640 282.5776  77.4579 15.05646072   306
DISKSAT D               
1 67222U 25305D   25354.18213152  .00001258  00000+0  10225-3 0  9994
2 67222  45.0104 311.1213 0004722 283.7170  76.3178 15.05557515   292
ELECTRON KICK STAGE R/B 
1 67223U 25305E   25354.25850977  .00016328  00000+0  16304-3 0  9993
2 67223  44.9975 310.0187 0179323 148.7450 212.4250 15.47983126   321
ELECTRON R/B            
1 67224U 25305F   25352.76890193  .00172783  86369-5  22935-3 0  9995
2 67224  45.0188 318.3021 0262888 280.1207  77.0133 15.64663678    93
